GLOBALSTAR M068         
1 32266U 07048D   25033.82904156 -.00000078  00000+0  14359-3 0  9996
2 32266  51.9914 351.8232 0000694 177.7977 218.1141 12.62814635800585
GLOBALSTAR M079         
1 37188U 10054A   25033.65360429 -.00000100  00000+0  20370-4 0  9992
2 37188  52.0016 189.3285 0000974  81.7036  25.6915 12.62270424659462
GLOBALSTAR M074         
1 37189U 10054B   25033.93316654 -.00000100  00000+0  21169-4 0  9992
2 37189  51.9993 187.8210 0001151 101.9074  76.1281 12.62262418660105
GLOBALSTAR M076         
1 37190U 10054C   25033.36873264 -.00000094  00000+0  54845-4 0  9995
2 37190  52.0007 189.6961 0001259  85.4405 287.8350 12.62277395659758
GLOBALSTAR M077         
1 37191U 10054D   25033.70217874 -.00000072  00000+0  17816-3 0  9995
2 37191  52.0064 145.5015 0000888 110.1538  37.4905 12.62270397660160
GLOBALSTAR M075         
1 37192U 10054E   25033.79991713 -.00000102  00000+0  11486-4 0  9998
2 37192  51.9921 230.7166 0001050  88.2012  25.8401 12.62272712658879
GLOBALSTAR M073         
1 37193U 10054F   25033.88475351 -.00000088  00000+0  85582-4 0  9995
2 37193  52.0053 144.1749 0000879 102.4590  35.8987 12.62262778660921
GLOBALSTAR M083         
1 37739U 11033A   25033.58564003 -.00000076  00000+0  15236-3 0  9994
2 37739  51.9859  93.9994 0000390 115.0852  44.6682 12.62271409629859
GLOBALSTAR M088         
1 37740U 11033B   25034.09931159 -.00000092  00000+0  64420-4 0  9991
2 37740  51.9807 358.0331 0000234  61.6618  33.5719 12.62273536625753
GLOBALSTAR M091         
1 37741U 11033C   25034.20385010 -.00000075  00000+0  15894-3 0  9995
2 37741  52.0028 321.0385 0000425  37.8529 112.1077 12.62264288626529
GLOBALSTAR M085         
1 37742U 11033D   25033.69017872 -.00000081  00000+0  12509-3 0  9993
2 37742  51.9861 273.7612 0000727  59.8271 334.6686 12.62265021626716
GLOBALSTAR M081         
1 37743U 11033E   25033.71647792 -.00000077  00000+0  15219-3 0  9993
2 37743  51.9952 276.3833 0000907  55.7126 339.4890 12.62260184626867
GLOBALSTAR M089         
1 37744U 11033F   25033.94367730 -.00000098  00000+0  32887-4 0  9994
2 37744  51.9902 229.9444 0001265  87.9753  79.2181 12.62265962627734
GLOBALSTAR M084         
1 38040U 11080A   25033.46865791 -.00000100  00000+0  22386-4 0  9990
2 38040  52.0009  98.6049 0000880 113.3209 354.8980 12.62261655605659
GLOBALSTAR M080         
1 38041U 11080B   25033.61356808 -.00000079  00000+0  13692-3 0  9996
2 38041  52.0061  99.7278 0000999  99.4218  64.6518 12.62271538605798
GLOBALSTAR M082         
1 38042U 11080C   25033.54859771 -.00000094  00000+0  52478-4 0  9999
2 38042  52.0083  55.3531 0000322 205.9114 325.1598 12.62272757606666
GLOBALSTAR M092         
1 38043U 11080D   25033.83472769 -.00000074  00000+0  16593-3 0  9995
2 38043  52.0080 144.8517 0000922 115.6460  36.2944 12.62272717605197
GLOBALSTAR M090         
1 38044U 11080E   25034.18777285 -.00000099  00000+0  27763-4 0  9995
2 38044  51.9893  47.3889 0000149 123.1276 313.1864 12.62266433606734
GLOBALSTAR M086         
1 38045U 11080F   25033.34873870 -.00000088  00000+0  85289-4 0  9995
2 38045  51.9905  50.4843 0000931  43.0590  59.1344 12.62266270606539
GLOBALSTAR M097         
1 39072U 13005A   25033.82807108 -.00000083  00000+0  11537-3 0  9998
2 39072  52.0070 323.4385 0000630  43.8022 316.2895 12.62269521553848
GLOBALSTAR M093         
1 39073U 13005B   25033.95937891 -.00000080  00000+0  13186-3 0  9995
2 39073  51.9831 316.5519 0000657  40.7753 319.3162 12.62260943553817
GLOBALSTAR M094         
1 39074U 13005C   25033.64311399 -.00000105  00000+0 -78303-5 0  9994
2 39074  51.9930 231.7650 0000932  66.9891 293.1074 12.62268015555384
GLOBALSTAR M096         
1 39075U 13005D   25033.89390706 -.00000071  00000+0  18082-3 0  9998
2 39075  52.0071 279.4136 0000749  48.9257 311.1675 12.62267893554338
GLOBALSTAR M078         
1 39076U 13005E   25034.18358221 -.00000059  00000+0  24840-3 0  9993
2 39076  51.9896   3.2160 0000605 236.4546 123.6262 12.62269973553202
GLOBALSTAR M095         
1 39077U 13005F   25033.81451669 -.00000092  00000+0  63559-4 0  9991
2 39077  51.9823   1.6067 0000324 309.3825  50.7013 12.62265844552801
GLOBALSTAR M087         
1 52888U 22064A   25034.24117519 -.00000088  00000+0  87847-4 0  9993
2 52888  51.9786 141.7141 0000667 114.7587 245.3349 12.62268233128455
